{
  "type": "FeatureCollection",
  "features": [
    {
      "type": "Feature",
      "properties": {
        "norad_id": 66417,
        "name": "HULIANWANG DIGUI 13F",
        "group": "last-30-days",
        "lat": 48.51303312945783,
        "lon": 0.04354733287289553,
        "alt_km": 810.2733149313353,
        "timestamp": "2025-12-06T11:28:09.784519+00:00",
        "meta_object_name": "HULIANWANG DIGUI 13F",
        "meta_object_id": "2025-258F",
        "meta_epoch": "2025-12-05T23:18:17.049024",
        "meta_mean_motion": 14.22738781,
        "meta_eccentricity": 0.00124384,
        "meta_inclination": 50.0003,
        "meta_ra_of_asc_node": 290.468,
        "meta_arg_of_pericenter": 340.0345,
        "meta_mean_anomaly": 20.008,
        "meta_ephemeris_type": 0,
        "meta_classification_type": "U",
        "meta_norad_cat_id": 66417,
        "meta_element_set_no": 999,
        "meta_rev_at_epoch": 369,
        "meta_bstar": 0.00034167411,
        "meta_mean_motion_dot": 6.12e-06,
        "meta_mean_motion_ddot": 0,
        "tle_line1": "1 66417U 25258F   25339.97103066  .00000612  00000+0  34167-3 0  9992",
        "tle_line2": "2 66417  50.0003 290.4680 0012438 340.0345  20.0080 14.22738781  3691"
      },
      "geometry": {
        "type": "Point",
        "coordinates": [
          0.04354733287289553,
          48.51303312945783
        ]
      }
    },
    {
      "type": "Feature",
      "properties": {
        "norad_id": 66418,
        "name": "HULIANWANG DIGUI 13G",
        "group": "last-30-days",
        "lat": 48.715872955951326,
        "lon": 35.31934692332559,
        "alt_km": 813.6923274132814,
        "timestamp": "2025-12-06T11:28:09.784530+00:00",
        "meta_object_name": "HULIANWANG DIGUI 13G",
        "meta_object_id": "2025-258G",
        "meta_epoch": "2025-12-05T21:30:39.941568",
        "meta_mean_motion": 14.22784746,
        "meta_eccentricity": 0.00116654,
        "meta_inclination": 50.0022,
        "meta_ra_of_asc_node": 290.7431,
        "meta_arg_of_pericenter": 336.1209,
        "meta_mean_anomaly": 23.9161,
        "meta_ephemeris_type": 0,
        "meta_classification_type": "U",
        "meta_norad_cat_id": 66418,
        "meta_element_set_no": 999,
        "meta_rev_at_epoch": 368,
        "meta_bstar": 0.00031844208,
        "meta_mean_motion_dot": 5.6e-06,
        "meta_mean_motion_ddot": 0,
        "tle_line1": "1 66418U 25258G   25339.89629562  .00000560  00000+0  31844-3 0  9999",
        "tle_line2": "2 66418  50.0022 290.7431 0011665 336.1209  23.9161 14.22784746  3689"
      },
      "geometry": {
        "type": "Point",
        "coordinates": [
          35.31934692332559,
          48.715872955951326
        ]
      }
    },
    {
      "type": "Feature",
      "properties": {
        "norad_id": 66419,
        "name": "HULIANWANG DIGUI 13H",
        "group": "last-30-days",
        "lat": 45.711580781179286,
        "lon": 48.878816550305835,
        "alt_km": 813.6431523544516,
        "timestamp": "2025-12-06T11:28:09.784540+00:00",
        "meta_object_name": "HULIANWANG DIGUI 13H",
        "meta_object_id": "2025-258H",
        "meta_epoch": "2025-12-05T14:43:51.252960",
        "meta_mean_motion": 14.23328519,
        "meta_eccentricity": 0.00120585,
        "meta_inclination": 50.0017,
        "meta_ra_of_asc_node": 291.9103,
        "meta_arg_of_pericenter": 334.7106,
        "meta_mean_anomaly": 25.3215,
        "meta_ephemeris_type": 0,
        "meta_classification_type": "U",
        "meta_norad_cat_id": 66419,
        "meta_element_set_no": 999,
        "meta_rev_at_epoch": 364,
        "meta_bstar": 0.00013377596,
        "meta_mean_motion_dot": 1.46e-06,
        "meta_mean_motion_ddot": 0,
        "tle_line1": "1 66419U 25258H   25339.61378765  .00000146  00000+0  13378-3 0  9998",
        "tle_line2": "2 66419  50.0017 291.9103 0012058 334.7106  25.3215 14.23328519  3645"
      },
      "geometry": {
        "type": "Point",
        "coordinates": [
          48.878816550305835,
          45.711580781179286
        ]
      }
    },
    {
      "type": "Feature",
      "properties": {
        "norad_id": 66420,
        "name": "HULIANWANG DIGUI 13J",
        "group": "last-30-days",
        "lat": 43.379036605949075,
        "lon": 55.85408908089241,
        "alt_km": 815.5365165671028,
        "timestamp": "2025-12-06T11:28:09.784549+00:00",
        "meta_object_name": "HULIANWANG DIGUI 13J",
        "meta_object_id": "2025-258J",
        "meta_epoch": "2025-12-05T23:07:39.042912",
        "meta_mean_motion": 14.22956918,
        "meta_eccentricity": 0.00133221,
        "meta_inclination": 50.0158,
        "meta_ra_of_asc_node": 290.4806,
        "meta_arg_of_pericenter": 343.9613,
        "meta_mean_anomaly": 16.0876,
        "meta_ephemeris_type": 0,
        "meta_classification_type": "U",
        "meta_norad_cat_id": 66420,
        "meta_element_set_no": 999,
        "meta_rev_at_epoch": 368,
        "meta_bstar": 0.00030678625,
        "meta_mean_motion_dot": 5.36e-06,
        "meta_mean_motion_ddot": 0,
        "tle_line1": "1 66420U 25258J   25339.96364633  .00000536  00000+0  30679-3 0  9993",
        "tle_line2": "2 66420  50.0158 290.4806 0013322 343.9613  16.0876 14.22956918  3680"
      },
      "geometry": {
        "type": "Point",
        "coordinates": [
          55.85408908089241,
          43.379036605949075
        ]
      }
    },
    {
      "type": "Feature",
      "properties": {
        "norad_id": 66421,
        "name": "CZ-12 R/B",
        "group": "last-30-days",
        "lat": -25.00704321963665,
        "lon": -97.94195870603352,
        "alt_km": 761.4359009502823,
        "timestamp": "2025-12-06T11:28:09.784561+00:00",
        "meta_object_name": "CZ-12 R/B",
        "meta_object_id": "2025-258K",
        "meta_epoch": "2025-12-05T22:19:20.878464",
        "meta_mean_motion": 14.4231909,
        "meta_eccentricity": 0.00645427,
        "meta_inclination": 49.9962,
        "meta_ra_of_asc_node": 287.4969,
        "meta_arg_of_pericenter": 224.9278,
        "meta_mean_anomaly": 134.6409,
        "meta_ephemeris_type": 0,
        "meta_classification_type": "U",
        "meta_norad_cat_id": 66421,
        "meta_element_set_no": 999,
        "meta_rev_at_epoch": 373,
        "meta_bstar": 0.00010835544,
        "meta_mean_motion_dot": 1.99e-06,
        "meta_mean_motion_ddot": 0,
        "tle_line1": "1 66421U 25258K   25339.93010276  .00000199  00000+0  10836-3 0  9990",
        "tle_line2": "2 66421  49.9962 287.4969 0064542 224.9278 134.6409 14.42319090  3733"
      },
      "geometry": {
        "type": "Point",
        "coordinates": [
          -97.94195870603352,
          -25.00704321963665
        ]
      }
    },
    {
      "type": "Feature",
      "properties": {
        "norad_id": 66422,
        "name": "STARLINK-35617",
        "group": "last-30-days",
        "lat": 42.971885024650504,
        "lon": 175.60669365653519,
        "alt_km": 438.227654711186,
        "timestamp": "2025-12-06T11:28:09.784584+00:00",
        "meta_object_name": "STARLINK-35617",
        "meta_object_id": "2025-259A",
        "meta_epoch": "2025-12-05T22:00:03.000096",
        "meta_mean_motion": 15.40842513,
        "meta_eccentricity": 0.0001509,
        "meta_inclination": 43.0009,
        "meta_ra_of_asc_node": 87.424,
        "meta_arg_of_pericenter": 310.8309,
        "meta_mean_anomaly": 263.7811,
        "meta_ephemeris_type": 0,
        "meta_classification_type": "U",
        "meta_norad_cat_id": 66422,
        "meta_element_set_no": 999,
        "meta_rev_at_epoch": 518,
        "meta_bstar": -0.0047492171,
        "meta_mean_motion_dot": -0.00194638,
        "meta_mean_motion_ddot": 0,
        "tle_line1": "1 66422U 25259A   25339.91670139 -.00194638  00000+0 -47492-2 0  9991",
        "tle_line2": "2 66422  43.0009  87.4240 0001509 310.8309 263.7811 15.40842513  5187"
      },
      "geometry": {
        "type": "Point",
        "coordinates": [
          175.60669365653519,
          42.971885024650504
        ]
      }
    },
    {
      "type": "Feature",
      "properties": {
        "norad_id": 66423,
        "name": "STARLINK-35618",
        "group": "last-30-days",
        "lat": 41.51847156023151,
        "lon": -167.64888387523703,
        "alt_km": 438.53723478127813,
        "timestamp": "2025-12-06T11:28:09.784603+00:00",
        "meta_object_name": "STARLINK-35618",
        "meta_object_id": "2025-259B",
        "meta_epoch": "2025-12-05T22:00:03.000096",
        "meta_mean_motion": 15.40669676,
        "meta_eccentricity": 0.00016426,
        "meta_inclination": 43.0009,
        "meta_ra_of_asc_node": 87.393,
        "meta_arg_of_pericenter": 285.5668,
        "meta_mean_anomaly": 301.6089,
        "meta_ephemeris_type": 0,
        "meta_classification_type": "U",
        "meta_norad_cat_id": 66423,
        "meta_element_set_no": 999,
        "meta_rev_at_epoch": 518,
        "meta_bstar": 0.00075940871,
        "meta_mean_motion_dot": 0.00031518,
        "meta_mean_motion_ddot": 0,
        "tle_line1": "1 66423U 25259B   25339.91670139  .00031518  00000+0  75941-3 0  9998",
        "tle_line2": "2 66423  43.0009  87.3930 0001642 285.5668 301.6089 15.40669676  5183"
      },
      "geometry": {
        "type": "Point",
        "coordinates": [
          -167.64888387523703,
          41.51847156023151
        ]
      }
    }
  ]
}